{
  "type": "FeatureCollection",
  "features": [
    {
      "type": "Feature",
      "properties": {
        "norad_id": 66907,
        "name": "1998-067XT",
        "group": "stations",
        "lat": 29.281534282426954,
        "lon": -41.668532785567145,
        "alt_km": 409.2711779166384,
        "timestamp": "2025-12-08T05:48:07.852451+00:00",
        "meta_object_name": "1998-067XT",
        "meta_object_id": "1998-067XT",
        "meta_epoch": "2025-12-07T21:27:41.929920",
        "meta_mean_motion": 15.50640627,
        "meta_eccentricity": 0.00050838,
        "meta_inclination": 51.63,
        "meta_ra_of_asc_node": 166.4336,
        "meta_arg_of_pericenter": 199.2143,
        "meta_mean_anomaly": 160.8655,
        "meta_ephemeris_type": 0,
        "meta_classification_type": "U",
        "meta_norad_cat_id": 66907,
        "meta_element_set_no": 999,
        "meta_rev_at_epoch": 86,
        "meta_bstar": 0.0010871959,
        "meta_mean_motion_dot": 0.00063549,
        "meta_mean_motion_ddot": 0,
        "tle_line1": "1 66907U 98067XT  25341.89423530  .00063549  00000+0  10872-2 0  9993",
        "tle_line2": "2 66907  51.6300 166.4336 0005083 199.2143 160.8655 15.50640627   860"
      },
      "geometry": {
        "type": "Point",
        "coordinates": [
          -41.668532785567145,
          29.281534282426954
        ]
      }
    },
    {
      "type": "Feature",
      "properties": {
        "norad_id": 66908,
        "name": "1998-067XU",
        "group": "stations",
        "lat": 28.604618974433162,
        "lon": -40.89193979290725,
        "alt_km": 409.09190869942995,
        "timestamp": "2025-12-08T05:48:07.852461+00:00",
        "meta_object_name": "1998-067XU",
        "meta_object_id": "1998-067XU",
        "meta_epoch": "2025-12-07T19:54:39.986208",
        "meta_mean_motion": 15.50677163,
        "meta_eccentricity": 0.00052497,
        "meta_inclination": 51.6294,
        "meta_ra_of_asc_node": 166.7524,
        "meta_arg_of_pericenter": 198.4563,
        "meta_mean_anomaly": 161.6236,
        "meta_ephemeris_type": 0,
        "meta_classification_type": "U",
        "meta_norad_cat_id": 66908,
        "meta_element_set_no": 999,
        "meta_rev_at_epoch": 85,
        "meta_bstar": 0.0012583992,
        "meta_mean_motion_dot": 0.00073824,
        "meta_mean_motion_ddot": 0,
        "tle_line1": "1 66908U 98067XU  25341.82962947  .00073824  00000+0  12584-2 0  9996",
        "tle_line2": "2 66908  51.6294 166.7524 0005249 198.4563 161.6236 15.50677163   854"
      },
      "geometry": {
        "type": "Point",
        "coordinates": [
          -40.89193979290725,
          28.604618974433162
        ]
      }
    },
    {
      "type": "Feature",
      "properties": {
        "norad_id": 66909,
        "name": "SILVERSAT",
        "group": "stations",
        "lat": 28.2452047313969,
        "lon": -40.4851353099626,
        "alt_km": 409.0168929754918,
        "timestamp": "2025-12-08T05:48:07.852470+00:00",
        "meta_object_name": "SILVERSAT",
        "meta_object_id": "1998-067XV",
        "meta_epoch": "2025-12-07T19:54:33.887232",
        "meta_mean_motion": 15.50747382,
        "meta_eccentricity": 0.00050921,
        "meta_inclination": 51.6296,
        "meta_ra_of_asc_node": 166.752,
        "meta_arg_of_pericenter": 199.8533,
        "meta_mean_anomaly": 160.2258,
        "meta_ephemeris_type": 0,
        "meta_classification_type": "U",
        "meta_norad_cat_id": 66909,
        "meta_element_set_no": 999,
        "meta_rev_at_epoch": 85,
        "meta_bstar": 0.0014852493,
        "meta_mean_motion_dot": 0.00087585,
        "meta_mean_motion_ddot": 0,
        "tle_line1": "1 66909U 98067XV  25341.82955888  .00087585  00000+0  14852-2 0  9992",
        "tle_line2": "2 66909  51.6296 166.7520 0005092 199.8533 160.2258 15.50747382   851"
      },
      "geometry": {
        "type": "Point",
        "coordinates": [
          -40.4851353099626,
          28.2452047313969
        ]
      }
    },
    {
      "type": "Feature",
      "properties": {
        "norad_id": 66910,
        "name": "1998-067XW",
        "group": "stations",
        "lat": 24.239698997497737,
        "lon": -36.2056212080116,
        "alt_km": 407.65560399442074,
        "timestamp": "2025-12-08T05:48:07.852480+00:00",
        "meta_object_name": "1998-067XW",
        "meta_object_id": "1998-067XW",
        "meta_epoch": "2025-12-07T21:26:00.150720",
        "meta_mean_motion": 15.50969965,
        "meta_eccentricity": 0.00060372,
        "meta_inclination": 51.6295,
        "meta_ra_of_asc_node": 166.4259,
        "meta_arg_of_pericenter": 184.7367,
        "meta_mean_anomaly": 175.3566,
        "meta_ephemeris_type": 0,
        "meta_classification_type": "U",
        "meta_norad_cat_id": 66910,
        "meta_element_set_no": 999,
        "meta_rev_at_epoch": 86,
        "meta_bstar": 0.0010283643,
        "meta_mean_motion_dot": 0.00060787,
        "meta_mean_motion_ddot": 0,
        "tle_line1": "1 66910U 98067XW  25341.89305730  .00060787  00000+0  10284-2 0  9996",
        "tle_line2": "2 66910  51.6295 166.4259 0006037 184.7367 175.3566 15.50969965   869"
      },
      "geometry": {
        "type": "Point",
        "coordinates": [
          -36.2056212080116,
          24.239698997497737
        ]
      }
    },
    {
      "type": "Feature",
      "properties": {
        "norad_id": 66911,
        "name": "1998-067XX",
        "group": "stations",
        "lat": 23.454117680541792,
        "lon": -35.413464906041,
        "alt_km": 407.46504722866484,
        "timestamp": "2025-12-08T05:48:07.852489+00:00",
        "meta_object_name": "1998-067XX",
        "meta_object_id": "1998-067XX",
        "meta_epoch": "2025-12-07T22:58:32.522304",
        "meta_mean_motion": 15.51093228,
        "meta_eccentricity": 0.00059306,
        "meta_inclination": 51.6292,
        "meta_ra_of_asc_node": 166.1051,
        "meta_arg_of_pericenter": 185.6814,
        "meta_mean_anomaly": 174.4109,
        "meta_ephemeris_type": 0,
        "meta_classification_type": "U",
        "meta_norad_cat_id": 66911,
        "meta_element_set_no": 999,
        "meta_rev_at_epoch": 86,
        "meta_bstar": 0.0012532777,
        "meta_mean_motion_dot": 0.00074641,
        "meta_mean_motion_ddot": 0,
        "tle_line1": "1 66911U 98067XX  25341.95732086  .00074641  00000+0  12533-2 0  9995",
        "tle_line2": "2 66911  51.6292 166.1051 0005930 185.6814 174.4109 15.51093228   866"
      },
      "geometry": {
        "type": "Point",
        "coordinates": [
          -35.413464906041,
          23.454117680541792
        ]
      }
    },
    {
      "type": "Feature",
      "properties": {
        "norad_id": 66912,
        "name": "1998-067XY",
        "group": "stations",
        "lat": 30.42892196353455,
        "lon": -43.02239632651369,
        "alt_km": 409.57472770275945,
        "timestamp": "2025-12-08T05:48:07.852499+00:00",
        "meta_object_name": "1998-067XY",
        "meta_object_id": "1998-067XY",
        "meta_epoch": "2025-12-07T21:28:04.340352",
        "meta_mean_motion": 15.50490946,
        "meta_eccentricity": 0.00051234,
        "meta_inclination": 51.6298,
        "meta_ra_of_asc_node": 166.4355,
        "meta_arg_of_pericenter": 198.3714,
        "meta_mean_anomaly": 161.709,
        "meta_ephemeris_type": 0,
        "meta_classification_type": "U",
        "meta_norad_cat_id": 66912,
        "meta_element_set_no": 999,
        "meta_rev_at_epoch": 85,
        "meta_bstar": 0.00087425229,
        "meta_mean_motion_dot": 0.00050656,
        "meta_mean_motion_ddot": 0,
        "tle_line1": "1 66912U 98067XY  25341.89449468  .00050656  00000+0  87425-3 0  9991",
        "tle_line2": "2 66912  51.6298 166.4355 0005123 198.3714 161.7090 15.50490946   851"
      },
      "geometry": {
        "type": "Point",
        "coordinates": [
          -43.02239632651369,
          30.42892196353455
        ]
      }
    }
  ]
}